<?xml version="1.0" encoding="UTF-8"?>
<ndm xmlns:xsi="http://www.w3.org/2001/XMLSchema-instance" xsi:noNamespaceSchemaLocation="https://sanaregistry.org/r/ndmxml_unqualified/ndmxml-2.0.0-master-2.0.xsd">
<omm id="CCSDS_OMM_VERS" version="2.0">
<header><CREATION_DATE/><ORIGINATOR/></header><body><segment><metadata><OBJECT_NAME>ORBCOMM FM20 [+]</OBJECT_NAME><OBJECT_ID>1998-046D</OBJECT_ID><CENTER_NAME>EARTH</CENTER_NAME><REF_FRAME>TEME</REF_FRAME><TIME_SYSTEM>UTC</TIME_SYSTEM><MEAN_ELEMENT_THEORY>SGP4</MEAN_ELEMENT_THEORY></metadata><data><meanElements><EPOCH>2024-02-22T08:10:59.954880</EPOCH><MEAN_MOTION>14.34911235</MEAN_MOTION><ECCENTRICITY>.000098</ECCENTRICITY><INCLINATION>44.9947</INCLINATION><RA_OF_ASC_NODE>294.2184</RA_OF_ASC_NODE><ARG_OF_PERICENTER>0.1278</ARG_OF_PERICENTER><MEAN_ANOMALY>359.9569</MEAN_ANOMALY></meanElements><tleParameters><EPHEMERIS_TYPE>0</EPHEMERIS_TYPE><CLASSIFICATION_TYPE>U</CLASSIFICATION_TYPE><NORAD_CAT_ID>25416</NORAD_CAT_ID><ELEMENT_SET_NO>999</ELEMENT_SET_NO><REV_AT_EPOCH>33514</REV_AT_EPOCH><BSTAR>.46015E-3</BSTAR><MEAN_MOTION_DOT>.1179E-4</MEAN_MOTION_DOT><MEAN_MOTION_DDOT>0</MEAN_MOTION_DDOT></tleParameters></data></segment></body></omm>
<omm id="CCSDS_OMM_VERS" version="2.0">
<header><CREATION_DATE/><ORIGINATOR/></header><body><segment><metadata><OBJECT_NAME>ORBCOMM FM16 [-]</OBJECT_NAME><OBJECT_ID>1998-046E</OBJECT_ID><CENTER_NAME>EARTH</CENTER_NAME><REF_FRAME>TEME</REF_FRAME><TIME_SYSTEM>UTC</TIME_SYSTEM><MEAN_ELEMENT_THEORY>SGP4</MEAN_ELEMENT_THEORY></metadata><data><meanElements><EPOCH>2024-02-22T13:24:11.642112</EPOCH><MEAN_MOTION>14.35779009</MEAN_MOTION><ECCENTRICITY>.0004357</ECCENTRICITY><INCLINATION>44.9946</INCLINATION><RA_OF_ASC_NODE>289.5124</RA_OF_ASC_NODE><ARG_OF_PERICENTER>38.2017</ARG_OF_PERICENTER><MEAN_ANOMALY>321.9138</MEAN_ANOMALY></meanElements><tleParameters><EPHEMERIS_TYPE>0</EPHEMERIS_TYPE><CLASSIFICATION_TYPE>U</CLASSIFICATION_TYPE><NORAD_CAT_ID>25417</NORAD_CAT_ID><ELEMENT_SET_NO>999</ELEMENT_SET_NO><REV_AT_EPOCH>33510</REV_AT_EPOCH><BSTAR>.63549E-3</BSTAR><MEAN_MOTION_DOT>.1714E-4</MEAN_MOTION_DOT><MEAN_MOTION_DDOT>0</MEAN_MOTION_DDOT></tleParameters></data></segment></body></omm>
<omm id="CCSDS_OMM_VERS" version="2.0">
<header><CREATION_DATE/><ORIGINATOR/></header><body><segment><metadata><OBJECT_NAME>ORBCOMM FM15 [-]</OBJECT_NAME><OBJECT_ID>1998-046F</OBJECT_ID><CENTER_NAME>EARTH</CENTER_NAME><REF_FRAME>TEME</REF_FRAME><TIME_SYSTEM>UTC</TIME_SYSTEM><MEAN_ELEMENT_THEORY>SGP4</MEAN_ELEMENT_THEORY></metadata><data><meanElements><EPOCH>2024-02-22T08:40:26.670720</EPOCH><MEAN_MOTION>14.35521843</MEAN_MOTION><ECCENTRICITY>.0003877</ECCENTRICITY><INCLINATION>44.9971</INCLINATION><RA_OF_ASC_NODE>294.3240</RA_OF_ASC_NODE><ARG_OF_PERICENTER>37.5990</ARG_OF_PERICENTER><MEAN_ANOMALY>322.5128</MEAN_ANOMALY></meanElements><tleParameters><EPHEMERIS_TYPE>0</EPHEMERIS_TYPE><CLASSIFICATION_TYPE>U</CLASSIFICATION_TYPE><NORAD_CAT_ID>25418</NORAD_CAT_ID><ELEMENT_SET_NO>999</ELEMENT_SET_NO><REV_AT_EPOCH>33508</REV_AT_EPOCH><BSTAR>.54702E-3</BSTAR><MEAN_MOTION_DOT>.1447E-4</MEAN_MOTION_DOT><MEAN_MOTION_DDOT>0</MEAN_MOTION_DDOT></tleParameters></data></segment></body></omm>
<omm id="CCSDS_OMM_VERS" version="2.0">
<header><CREATION_DATE/><ORIGINATOR/></header><body><segment><metadata><OBJECT_NAME>ORBCOMM FM14 [-]</OBJECT_NAME><OBJECT_ID>1998-046G</OBJECT_ID><CENTER_NAME>EARTH</CENTER_NAME><REF_FRAME>TEME</REF_FRAME><TIME_SYSTEM>UTC</TIME_SYSTEM><MEAN_ELEMENT_THEORY>SGP4</MEAN_ELEMENT_THEORY></metadata><data><meanElements><EPOCH>2024-02-22T10:15:15.467904</EPOCH><MEAN_MOTION>14.35663144</MEAN_MOTION><ECCENTRICITY>.0002788</ECCENTRICITY><INCLINATION>44.9962</INCLINATION><RA_OF_ASC_NODE>293.2252</RA_OF_ASC_NODE><ARG_OF_PERICENTER>25.5989</ARG_OF_PERICENTER><MEAN_ANOMALY>144.3741</MEAN_ANOMALY></meanElements><tleParameters><EPHEMERIS_TYPE>0</EPHEMERIS_TYPE><CLASSIFICATION_TYPE>U</CLASSIFICATION_TYPE><NORAD_CAT_ID>25419</NORAD_CAT_ID><ELEMENT_SET_NO>999</ELEMENT_SET_NO><REV_AT_EPOCH>33504</REV_AT_EPOCH><BSTAR>.5673E-3</BSTAR><MEAN_MOTION_DOT>.1511E-4</MEAN_MOTION_DOT><MEAN_MOTION_DDOT>0</MEAN_MOTION_DDOT></tleParameters></data></segment></body></omm>
<omm id="CCSDS_OMM_VERS" version="2.0">
<header><CREATION_DATE/><ORIGINATOR/></header><body><segment><metadata><OBJECT_NAME>ORBCOMM FM13 [+]</OBJECT_NAME><OBJECT_ID>1998-046H</OBJECT_ID><CENTER_NAME>EARTH</CENTER_NAME><REF_FRAME>TEME</REF_FRAME><TIME_SYSTEM>UTC</TIME_SYSTEM><MEAN_ELEMENT_THEORY>SGP4</MEAN_ELEMENT_THEORY></metadata><data><meanElements><EPOCH>2024-02-22T09:40:16.946688</EPOCH><MEAN_MOTION>14.35013031</MEAN_MOTION><ECCENTRICITY>.0005119</ECCENTRICITY><INCLINATION>44.9982</INCLINATION><RA_OF_ASC_NODE>297.7946</RA_OF_ASC_NODE><ARG_OF_PERICENTER>21.2000</ARG_OF_PERICENTER><MEAN_ANOMALY>338.9059</MEAN_ANOMALY></meanElements><tleParameters><EPHEMERIS_TYPE>0</EPHEMERIS_TYPE><CLASSIFICATION_TYPE>U</CLASSIFICATION_TYPE><NORAD_CAT_ID>25420</NORAD_CAT_ID><ELEMENT_SET_NO>999</ELEMENT_SET_NO><REV_AT_EPOCH>33411</REV_AT_EPOCH><BSTAR>.51822E-3</BSTAR><MEAN_MOTION_DOT>.1349E-4</MEAN_MOTION_DOT><MEAN_MOTION_DDOT>0</MEAN_MOTION_DDOT></tleParameters></data></segment></body></omm>
<omm id="CCSDS_OMM_VERS" version="2.0">
<header><CREATION_DATE/><ORIGINATOR/></header><body><segment><metadata><OBJECT_NAME>ORBCOMM FM21 [-]</OBJECT_NAME><OBJECT_ID>1998-053A</OBJECT_ID><CENTER_NAME>EARTH</CENTER_NAME><REF_FRAME>TEME</REF_FRAME><TIME_SYSTEM>UTC</TIME_SYSTEM><MEAN_ELEMENT_THEORY>SGP4</MEAN_ELEMENT_THEORY></metadata><data><meanElements><EPOCH>2024-02-22T06:45:29.776032</EPOCH><MEAN_MOTION>14.34985318</MEAN_MOTION><ECCENTRICITY>.0002359</ECCENTRICITY><INCLINATION>45.0107</INCLINATION><RA_OF_ASC_NODE>22.5872</RA_OF_ASC_NODE><ARG_OF_PERICENTER>312.0036</ARG_OF_PERICENTER><MEAN_ANOMALY>48.0610</MEAN_ANOMALY></meanElements><tleParameters><EPHEMERIS_TYPE>0</EPHEMERIS_TYPE><CLASSIFICATION_TYPE>U</CLASSIFICATION_TYPE><NORAD_CAT_ID>25475</NORAD_CAT_ID><ELEMENT_SET_NO>999</ELEMENT_SET_NO><REV_AT_EPOCH>32811</REV_AT_EPOCH><BSTAR>.59206E-3</BSTAR><MEAN_MOTION_DOT>.156E-4</MEAN_MOTION_DOT><MEAN_MOTION_DDOT>0</MEAN_MOTION_DDOT></tleParameters></data></segment></body></omm>
<omm id="CCSDS_OMM_VERS" version="2.0">
<header><CREATION_DATE/><ORIGINATOR/></header><body><segment><metadata><OBJECT_NAME>ORBCOMM FM22 [-]</OBJECT_NAME><OBJECT_ID>1998-053B</OBJECT_ID><CENTER_NAME>EARTH</CENTER_NAME><REF_FRAME>TEME</REF_FRAME><TIME_SYSTEM>UTC</TIME_SYSTEM><MEAN_ELEMENT_THEORY>SGP4</MEAN_ELEMENT_THEORY></metadata><data><meanElements><EPOCH>2024-02-22T10:12:26.174016</EPOCH><MEAN_MOTION>14.35447269</MEAN_MOTION><ECCENTRICITY>.0004013</ECCENTRICITY><INCLINATION>45.0093</INCLINATION><RA_OF_ASC_NODE>19.4941</RA_OF_ASC_NODE><ARG_OF_PERICENTER>320.1617</ARG_OF_PERICENTER><MEAN_ANOMALY>39.8935</MEAN_ANOMALY></meanElements><tleParameters><EPHEMERIS_TYPE>0</EPHEMERIS_TYPE><CLASSIFICATION_TYPE>U</CLASSIFICATION_TYPE><NORAD_CAT_ID>25476</NORAD_CAT_ID><ELEMENT_SET_NO>999</ELEMENT_SET_NO><REV_AT_EPOCH>32812</REV_AT_EPOCH><BSTAR>.65268E-3</BSTAR><MEAN_MOTION_DOT>.1752E-4</MEAN_MOTION_DOT><MEAN_MOTION_DDOT>0</MEAN_MOTION_DDOT></tleParameters></data></segment></body></omm>
<omm id="CCSDS_OMM_VERS" version="2.0">
<header><CREATION_DATE/><ORIGINATOR/></header><body><segment><metadata><OBJECT_NAME>ORBCOMM FM23 [-]</OBJECT_NAME><OBJECT_ID>1998-053C</OBJECT_ID><CENTER_NAME>EARTH</CENTER_NAME><REF_FRAME>TEME</REF_FRAME><TIME_SYSTEM>UTC</TIME_SYSTEM><MEAN_ELEMENT_THEORY>SGP4</MEAN_ELEMENT_THEORY></metadata><data><meanElements><EPOCH>2024-02-22T14:09:48.197952</EPOCH><MEAN_MOTION>14.35008414</MEAN_MOTION><ECCENTRICITY>.0003355</ECCENTRICITY><INCLINATION>45.0099</INCLINATION><RA_OF_ASC_NODE>23.5781</RA_OF_ASC_NODE><ARG_OF_PERICENTER>314.7316</ARG_OF_PERICENTER><MEAN_ANOMALY>45.3258</MEAN_ANOMALY></meanElements><tleParameters><EPHEMERIS_TYPE>0</EPHEMERIS_TYPE><CLASSIFICATION_TYPE>U</CLASSIFICATION_TYPE><NORAD_CAT_ID>25477</NORAD_CAT_ID><ELEMENT_SET_NO>999</ELEMENT_SET_NO><REV_AT_EPOCH>32830</REV_AT_EPOCH><BSTAR>.63649E-3</BSTAR><MEAN_MOTION_DOT>.1689E-4</MEAN_MOTION_DOT><MEAN_MOTION_DDOT>0</MEAN_MOTION_DDOT></tleParameters></data></segment></body></omm>

</ndm>
