ORBCOMM FM20 [+]        
1 25416U 98046D   24053.34097170  .00001179  00000+0  46015-3 0  9996
2 25416  44.9947 294.2184 0000980   0.1278 359.9569 14.34911235335147
ORBCOMM FM16 [-]        
1 25417U 98046E   24053.55846808  .00001714  00000+0  63549-3 0  9996
2 25417  44.9946 289.5124 0004357  38.2017 321.9138 14.35779009335102
ORBCOMM FM15 [-]        
1 25418U 98046F   24053.36141980  .00001447  00000+0  54702-3 0  9999
2 25418  44.9971 294.3240 0003877  37.5990 322.5128 14.35521843335086
ORBCOMM FM14 [-]        
1 25419U 98046G   24053.42726236  .00001511  00000+0  56730-3 0  9995
2 25419  44.9962 293.2252 0002788  25.5989 144.3741 14.35663144335041
ORBCOMM FM13 [+]        
1 25420U 98046H   24053.40297392  .00001349  00000+0  51822-3 0  9997
2 25420  44.9982 297.7946 0005119  21.2000 338.9059 14.35013031334116
ORBCOMM FM21 [-]        
1 25475U 98053A   24053.28159463  .00001560  00000+0  59206-3 0  9996
2 25475  45.0107  22.5872 0002359 312.0036  48.0610 14.34985318328112
ORBCOMM FM22 [-]        
1 25476U 98053B   24053.42530294  .00001752  00000+0  65268-3 0  9996
2 25476  45.0093  19.4941 0004013 320.1617  39.8935 14.35447269328121
ORBCOMM FM23 [-]        
1 25477U 98053C   24053.59014118  .00001689  00000+0  63649-3 0  9997
2 25477  45.0099  23.5781 0003355 314.7316  45.3258 14.35008414328304
